     3.00           N                   E                   RINEX VERSION / TYPE
BRD_USR             ESA                 20190107 081728  UTCPGM / RUN BY / DATE
 GAL   5.1250E+01  3.1250E-02 -4.3335E-03  0.0000E+00       IONOSPHERIC CORR
GAUT  0.0000000000E+00 0.000000000E+00  86400 2035 GSTB   0 TIME SYSTEM CORR
GPGA -2.1245796233E-09 4.440892099E-15  86400 2035 GSTB   0 TIME SYSTEM CORR
                                                            END OF HEADER
E31 2019 01 07 06 00 00 9.389658225700E-04-9.706013770483E-12 0.000000000000E+00
     5.200000000000E+01 1.031250000000E+02 2.345454840466E-09-1.320315351360E+00
     4.857778549194E-06 2.550865756348E-04 1.234561204910E-05 5.440633401871E+03
     1.080000000000E+05-1.862645149231E-09-2.949437102843E+00 4.097819328308E-08
     9.898750407259E-01 9.053125000000E+01-1.533546728388E+00-5.050567519267E-09
    -1.775073938955E-10 2.580000000000E+02 2.035000000000E+03 0.000000000000E+00
     3.120000000000E+00 0.000000000000E+00 0.000000000000E+00 0.000000000000E+00
     1.087000000000E+05 0.000000000000E+00 0.000000000000E+00 0.000000000000E+00
E33 2019 01 07 06 00 00 8.478750823997E-04 7.105427357601E-14 0.000000000000E+00
     5.200000000000E+01-1.318125000000E+02 3.057270204718E-09-2.680033802851E+00
    -6.103888154030E-06 3.590965643525E-04 2.104789018631E-07 5.440595781326E+03
     1.080000000000E+05 3.352761268616E-08-8.665431322568E-01 2.793967723846E-08
     9.851753783603E-01 3.478750000000E+02-1.501294108503E+00-5.772740457811E-09
    -2.503675716715E-10 2.580000000000E+02 2.035000000000E+03 0.000000000000E+00
     3.120000000000E+00 5.600000000000E+01-8.149072527885E-09 0.000000000000E+00
     1.087000000000E+05 0.000000000000E+00 0.000000000000E+00 0.000000000000E+00
E36 2019 01 07 06 00 00 7.625737343915E-04-4.433786671143E-12 0.000000000000E+00
     5.200000000000E+01-1.480625000000E+02 2.981195607335E-09 1.376810549960E+00
    -6.889924407005E-06 3.266036510468E-04 1.337379217148E-06 5.440598690033E+03
     1.080000000000E+05-3.725290298462E-08-8.665172839573E-01-2.793967723846E-08
     9.851837667326E-01 3.238750000000E+02-1.629415776073E+00-5.720595428619E-09
    -2.957266039144E-10 2.580000000000E+02 2.035000000000E+03 0.000000000000E+00
     3.120000000000E+00 5.600000000000E+01 1.164153218269E-09 0.000000000000E+00
     1.087000000000E+05 0.000000000000E+00 0.000000000000E+00 0.000000000000E+00
E11 2019 01 07 06 00 00 5.719211825635E-03 9.379164112033E-13 0.000000000000E+00
     5.200000000000E+01-1.387812500000E+02 2.970123717575E-09 8.811102487500E-01
    -6.450340151787E-06 2.453909255564E-04 9.667128324509E-07 5.440607959747E+03
     1.080000000000E+05-1.303851604462E-08-8.612080133877E-01-8.940696716309E-08
     9.819385389844E-01 3.282500000000E+02-3.536340356028E-01-5.779169297027E-09
    -3.189418566371E-10 5.210000000000E+02 2.035000000000E+03 0.000000000000E+00
     3.120000000000E+00 0.000000000000E+00-1.816079020500E-08-1.979060471058E-08
     1.087150000000E+05 0.000000000000E+00 0.000000000000E+00 0.000000000000E+00
E09 2019 01 07 05 40 00 6.565652613062E-03-1.135447291745E-11 0.000000000000E+00
     5.000000000000E+01 3.993750000000E+01 3.394427105800E-09-1.833431196374E+00
     1.916661858559E-06 2.457496011630E-04 6.411224603653E-06 5.440608835220E+03
     1.068000000000E+05-5.774199962616E-08 1.235339096603E+00-3.725290298462E-09
     9.582551958153E-01 2.033750000000E+02 1.167876497715E-01-5.597376010321E-09
     4.885917803802E-10 2.580000000000E+02 2.035000000000E+03 0.000000000000E+00
     3.120000000000E+00 0.000000000000E+00-3.259629011154E-09 0.000000000000E+00
     1.088000000000E+05 0.000000000000E+00 0.000000000000E+00 0.000000000000E+00
E04 2019 01 07 06 00 00-1.949152792804E-04-7.844391802792E-12 0.000000000000E+00
     5.200000000000E+01 3.078125000000E+01 3.494074113640E-09-2.792373791062E+00
     1.370906829834E-06 7.801596075296E-05 6.351619958878E-06 5.440611261368E+03
     1.080000000000E+05-1.862645149231E-08 1.244021376427E+00-2.421438694000E-08
     9.522816668109E-01 2.015937500000E+02 2.014029441210E+00-5.666664610755E-09
     4.735911555440E-10 5.210000000000E+02 2.035000000000E+03 0.000000000000E+00
     3.120000000000E+00 0.000000000000E+00-7.916241884232E-09-8.847564458847E-09
     1.088350000000E+05 0.000000000000E+00 0.000000000000E+00 0.000000000000E+00
E04 2019 01 07 06 00 00-1.949147554114E-04-7.844391802792E-12 0.000000000000E+00
     5.200000000000E+01 3.078125000000E+01 3.494074113640E-09-2.792373791062E+00
     1.370906829834E-06 7.801596075296E-05 6.351619958878E-06 5.440611261368E+03
     1.080000000000E+05-1.862645149231E-08 1.244021376427E+00-2.421438694000E-08
     9.522816668109E-01 2.015937500000E+02 2.014029441210E+00-5.666664610755E-09
     4.735911555440E-10 2.580000000000E+02 2.035000000000E+03 0.000000000000E+00
     3.120000000000E+00 0.000000000000E+00-7.916241884232E-09 0.000000000000E+00
     1.088500000000E+05 0.000000000000E+00 0.000000000000E+00 0.000000000000E+00
E02 2019 01 07 06 00 00 4.229834303260E-05 1.534772309242E-12 0.000000000000E+00
     5.200000000000E+01 1.311562500000E+02 2.340454632187E-09 1.330984919081E+00
     5.964189767838E-06 2.681552432477E-04 1.165270805359E-05 5.440626419067E+03
     1.080000000000E+05 3.166496753693E-08-2.946830738734E+00-2.235174179077E-08
     9.903438781748E-01 1.049687500000E+02-2.773026567802E-01-5.035924052165E-09
    -2.092944322389E-10 5.210000000000E+02 2.035000000000E+03 0.000000000000E+00
     3.120000000000E+00 0.000000000000E+00-5.820766091347E-09-7.217749953270E-09
     1.088950000000E+05 0.000000000000E+00 0.000000000000E+00 0.000000000000E+00
E02 2019 01 07 06 00 00 4.229927435517E-05 1.534772309242E-12 0.000000000000E+00
     5.200000000000E+01 1.311562500000E+02 2.340454632187E-09 1.330984919081E+00
     5.964189767838E-06 2.681552432477E-04 1.165270805359E-05 5.440626419067E+03
     1.080000000000E+05 3.166496753693E-08-2.946830738734E+00-2.235174179077E-08
     9.903438781748E-01 1.049687500000E+02-2.773026567802E-01-5.035924052165E-09
    -2.092944322389E-10 2.580000000000E+02 2.035000000000E+03 0.000000000000E+00
     3.120000000000E+00 0.000000000000E+00-5.820766091347E-09 0.000000000000E+00
     1.089000000000E+05 0.000000000000E+00 0.000000000000E+00 0.000000000000E+00
E02 2019 01 07 06 00 00 4.229927435517E-05 1.534772309242E-12 0.000000000000E+00
     5.200000000000E+01 1.311562500000E+02 2.340454632187E-09 1.330984919081E+00
     5.964189767838E-06 2.681552432477E-04 1.165270805359E-05 5.440626419067E+03
     1.080000000000E+05 3.166496753693E-08-2.946830738734E+00-2.235174179077E-08
     9.903438781748E-01 1.049687500000E+02-2.773026567802E-01-5.035924052165E-09
    -2.092944322389E-10 2.580000000000E+02 2.035000000000E+03 0.000000000000E+00
     3.120000000000E+00 0.000000000000E+00-5.820766091347E-09 0.000000000000E+00
     1.089500000000E+05 0.000000000000E+00 0.000000000000E+00 0.000000000000E+00
E19 2019 01 07 06 00 00-9.316659998149E-06 2.842170943040E-13 0.000000000000E+00
     5.200000000000E+01 2.940625000000E+01 3.435500245232E-09-2.232275903297E+00
     1.339241862297E-06 1.379294553772E-04 6.493180990219E-06 5.440609506607E+03
     1.080000000000E+05 2.980232238770E-08 1.240688875375E+00-1.862645149231E-08
     9.580107407413E-01 1.984375000000E+02 2.314566541821E+00-5.577732334940E-09
     5.143071372424E-10 2.580000000000E+02 2.035000000000E+03 0.000000000000E+00
     3.120000000000E+00 0.000000000000E+00-8.614733815193E-09 0.000000000000E+00
     1.089500000000E+05 0.000000000000E+00 0.000000000000E+00 0.000000000000E+00
E02 2019 01 07 06 00 00 4.229834303260E-05 1.534772309242E-12 0.000000000000E+00
     5.200000000000E+01 1.311562500000E+02 2.340454632187E-09 1.330984919081E+00
     5.964189767838E-06 2.681552432477E-04 1.165270805359E-05 5.440626419067E+03
     1.080000000000E+05 3.166496753693E-08-2.946830738734E+00-2.235174179077E-08
     9.903438781748E-01 1.049687500000E+02-2.773026567802E-01-5.035924052165E-09
    -2.092944322389E-10 5.210000000000E+02 2.035000000000E+03 0.000000000000E+00
     3.120000000000E+00 0.000000000000E+00-5.820766091347E-09-7.217749953270E-09
     1.089550000000E+05 0.000000000000E+00 0.000000000000E+00 0.000000000000E+00
E19 2019 01 07 06 00 00-9.316892828792E-06 2.984279490192E-13 0.000000000000E+00
     5.200000000000E+01 2.940625000000E+01 3.435500245232E-09-2.232275903297E+00
     1.339241862297E-06 1.379294553772E-04 6.493180990219E-06 5.440609506607E+03
     1.080000000000E+05 2.980232238770E-08 1.240688875375E+00-1.862645149231E-08
     9.580107407413E-01 1.984375000000E+02 2.314566541821E+00-5.577732334940E-09
     5.143071372424E-10 5.210000000000E+02 2.035000000000E+03 0.000000000000E+00
     3.120000000000E+00 0.000000000000E+00-8.614733815193E-09-9.080395102501E-09
     1.089550000000E+05 0.000000000000E+00 0.000000000000E+00 0.000000000000E+00
E24 2019 01 07 05 30 00 6.298867985606E-03-1.963940121641E-11 0.000000000000E+00
     4.900000000000E+01 1.084062500000E+02 2.272594662690E-09 1.947981665507E+00
     5.189329385757E-06 4.606958245859E-04 1.134537160397E-05 5.440630004883E+03
     1.062000000000E+05-3.166496753693E-08-2.943319158954E+00 6.705522537231E-08
     9.879032100198E-01 1.101562500000E+02 4.503319390243E-01-5.103784021662E-09
    -1.800074980348E-10 2.580000000000E+02 2.035000000000E+03 0.000000000000E+00
     3.120000000000E+00 0.000000000000E+00 4.284083843231E-08 0.000000000000E+00
     1.090000000000E+05 0.000000000000E+00 0.000000000000E+00 0.000000000000E+00
